[{"OBJECT_NAME":"STARLINK-30600","OBJECT_ID":"2023-161D","EPOCH":"2026-03-09T13:48:53.294112","MEAN_MOTION":15.30187522,"ECCENTRICITY":0.0001272,"INCLINATION":53.1609,"RA_OF_ASC_NODE":166.0889,"ARG_OF_PERICENTER":107.9519,"MEAN_ANOMALY":252.1621,"EPHEMERIS_TYPE":0,"CLASSIFICATION_TYPE":"U","NORAD_CAT_ID":58100,"ELEMENT_SET_NO":999,"REV_AT_EPOCH":13440,"BSTAR":1.1243e-5,"MEAN_MOTION_DOT":-2.6e-7,"MEAN_MOTION_DDOT":0},{"OBJECT_NAME":"FREGAT DEB","OBJECT_ID":"2011-037CA","EPOCH":"2026-03-09T14:50:33.280800","MEAN_MOTION":11.1879263,"ECCENTRICITY":0.1892682,"INCLINATION":51.5488,"RA_OF_ASC_NODE":250.7678,"ARG_OF_PERICENTER":39.8106,"MEAN_ANOMALY":332.7245,"EPHEMERIS_TYPE":0,"CLASSIFICATION_TYPE":"U","NORAD_CAT_ID":45840,"ELEMENT_SET_NO":999,"REV_AT_EPOCH":22544,"BSTAR":0.0057315,"MEAN_MOTION_DOT":0.00017987,"MEAN_MOTION_DDOT":0}]
